start=new Date('2021-08-28T00:00:00.000Z').valueOf();
sats=[{"COUNTRY_CODE":"US","OBJECT_TYPE":"PAYLOAD","SITE":"AFETR","MEAN_ELEMENT_THEORY":"SGP4","TIME_SYSTEM":"UTC","OBJECT_ID":"2021-017X","GP_ID":"183556652","TLE_LINE1":"1 47743U 21017X   21239.78133219  .00000697  00000-0  65732-4 0  9996","APOAPSIS":"548.666","INCLINATION":"53.0557","EPOCH":"2021-08-27T18:45:07.101216","PERIOD":"95.592","SEMIMAJOR_AXIS":"6925.353","ARG_OF_PERICENTER":"94.7799","MEAN_ANOMALY":"265.3429","ELEMENT_SET_NO":"999","MEAN_MOTION_DOT":"0.00000697","RA_OF_ASC_NODE":"70.7737","REF_FRAME":"TEME","FILE":"3104038","EPHEMERIS_TYPE":"0","RCS_SIZE":"LARGE","PERIAPSIS":"545.770","CENTER_NAME":"EARTH","TLE_LINE2":"2 47743  53.0557  70.7737 0002091  94.7799 265.3429 15.06398425 28464","BSTAR":"0.00006573200000","LAUNCH_DATE":"2021-03-04","DECAY_DATE":null,"MEAN_MOTION_DDOT":"0.0000000000000","ECCENTRICITY":"0.00020910","REV_AT_EPOCH":"2846","NORAD_CAT_ID":"47743","MEAN_MOTION":"15.06398425","OBJECT_NAME":"STARLINK-2157","CLASSIFICATION_TYPE":"U"},{"CLASSIFICATION_TYPE":"U","OBJECT_NAME":"STARLINK-2158","NORAD_CAT_ID":"47744","MEAN_MOTION":"15.06396182","REV_AT_EPOCH":"2849","ECCENTRICITY":"0.00020500","MEAN_MOTION_DDOT":"0.0000000000000","DECAY_DATE":null,"LAUNCH_DATE":"2021-03-04","TLE_LINE2":"2 47744  53.0572  70.5809 0002050  92.4967 267.6257 15.06396182 28492","BSTAR":"0.00008437600000","FILE":"3104038","RCS_SIZE":"LARGE","EPHEMERIS_TYPE":"0","PERIAPSIS":"545.806","CENTER_NAME":"EARTH","MEAN_MOTION_DOT":"0.00000975","RA_OF_ASC_NODE":"70.5809","REF_FRAME":"TEME","MEAN_ANOMALY":"267.6257","ELEMENT_SET_NO":"999","PERIOD":"95.592","SEMIMAJOR_AXIS":"6925.360","ARG_OF_PERICENTER":"92.4967","APOAPSIS":"548.645","INCLINATION":"53.0572","EPOCH":"2021-08-27T19:48:48.421152","GP_ID":"183556387","TLE_LINE1":"1 47744U 21017Y   21239.82556043  .00000975  00000-0  84376-4 0  9990","MEAN_ELEMENT_THEORY":"SGP4","TIME_SYSTEM":"UTC","OBJECT_ID":"2021-017Y","OBJECT_TYPE":"PAYLOAD","SITE":"AFETR","COUNTRY_CODE":"US"},{"OBJECT_NAME":"STARLINK-2159","CLASSIFICATION_TYPE":"U","REV_AT_EPOCH":"2830","MEAN_MOTION":"15.06394613","NORAD_CAT_ID":"47745","DECAY_DATE":null,"MEAN_MOTION_DDOT":"0.0000000000000","ECCENTRICITY":"0.00022820","FILE":"3104038","RCS_SIZE":"LARGE","PERIAPSIS":"545.650","CENTER_NAME":"EARTH","EPHEMERIS_TYPE":"0","BSTAR":"-0.00002663800000","TLE_LINE2":"2 47745  53.0565  80.4648 0002282  82.1616 277.9632 15.06394613 28308","LAUNCH_DATE":"2021-03-04","RA_OF_ASC_NODE":"80.4648","REF_FRAME":"TEME","MEAN_MOTION_DOT":"-0.00000679","SEMIMAJOR_AXIS":"6925.365","ARG_OF_PERICENTER":"82.1616","PERIOD":"95.592","ELEMENT_SET_NO":"999","MEAN_ANOMALY":"277.9632","OBJECT_ID":"2021-017Z","TIME_SYSTEM":"UTC","MEAN_ELEMENT_THEORY":"SGP4","TLE_LINE1":"1 47745U 21017Z   21239.85413090 -.00000679  00000-0 -26638-4 0  9998","GP_ID":"183557653","EPOCH":"2021-08-27T20:29:56.909760","APOAPSIS":"548.810","INCLINATION":"53.0565","COUNTRY_CODE":"US","SITE":"AFETR","OBJECT_TYPE":"PAYLOAD"},{"MEAN_MOTION_DDOT":"0.0000000000000","DECAY_DATE":null,"ECCENTRICITY":"0.00019310","TLE_LINE2":"2 47746  53.0551  80.7815 0001931  82.5041 277.6167 15.06397175 28282","BSTAR":"0.00007469700000","RCS_SIZE":"LARGE","FILE":"3104038","PERIAPSIS":"545.885","EPHEMERIS_TYPE":"0","CENTER_NAME":"EARTH","LAUNCH_DATE":"2021-03-04","OBJECT_NAME":"STARLINK-2160","CLASSIFICATION_TYPE":"U","NORAD_CAT_ID":"47746","MEAN_MOTION":"15.06397175","REV_AT_EPOCH":"2828","GP_ID":"183557371","TLE_LINE1":"1 47746U 21017AA  21239.78041699  .00000831  00000-0  74697-4 0  9999","MEAN_ELEMENT_THEORY":"SGP4","TIME_SYSTEM":"UTC","OBJECT_ID":"2021-017AA","APOAPSIS":"548.560","INCLINATION":"53.0551","EPOCH":"2021-08-27T18:43:48.027936","COUNTRY_CODE":"US","OBJECT_TYPE":"PAYLOAD","SITE":"AFETR","MEAN_MOTION_DOT":"0.00000831","RA_OF_ASC_NODE":"80.7815","REF_FRAME":"TEME","PERIOD":"95.592","SEMIMAJOR_AXIS":"6925.357","ARG_OF_PERICENTER":"82.5041","MEAN_ANOMALY":"277.6167","ELEMENT_SET_NO":"999"},{"OBJECT_NAME":"STARLINK-2161","CLASSIFICATION_TYPE":"U","NORAD_CAT_ID":"47747","MEAN_MOTION":"15.06405578","REV_AT_EPOCH":"2846","MEAN_MOTION_DDOT":"0.0000000000000","DECAY_DATE":null,"ECCENTRICITY":"0.00021170","TLE_LINE2":"2 47747  53.0571  70.7963 0002117 100.2390 259.8837 15.06405578 28463","BSTAR":"0.00006648400000","FILE":"3104038","PERIAPSIS":"545.730","RCS_SIZE":"LARGE","CENTER_NAME":"EARTH","EPHEMERIS_TYPE":"0","LAUNCH_DATE":"2021-03-04","MEAN_MOTION_DOT":"0.00000709","RA_OF_ASC_NODE":"70.7963","REF_FRAME":"TEME","PERIOD":"95.592","SEMIMAJOR_AXIS":"6925.331","ARG_OF_PERICENTER":"100.2390","MEAN_ANOMALY":"259.8837","ELEMENT_SET_NO":"999","GP_ID":"183556138","TLE_LINE1":"1 47747U 21017AB  21239.77763712  .00000709  00000-0  66484-4 0  9995","MEAN_ELEMENT_THEORY":"SGP4","OBJECT_ID":"2021-017AB","TIME_SYSTEM":"UTC","APOAPSIS":"548.663","INCLINATION":"53.0571","EPOCH":"2021-08-27T18:39:47.847168","COUNTRY_CODE":"US","OBJECT_TYPE":"PAYLOAD","SITE":"AFETR"},{"OBJECT_NAME":"STARLINK-2162","CLASSIFICATION_TYPE":"U","REV_AT_EPOCH":"2843","MEAN_MOTION":"15.06398206","NORAD_CAT_ID":"47748","DECAY_DATE":null,"MEAN_MOTION_DDOT":"0.0000000000000","ECCENTRICITY":"0.00021180","FILE":"3104038","RCS_SIZE":"LARGE","PERIAPSIS":"545.752","CENTER_NAME":"EARTH","EPHEMERIS_TYPE":"0","BSTAR":"-0.00001781600000","TLE_LINE2":"2 47748  53.0574  70.8300 0002118 101.3300 258.7927 15.06398206 28431","LAUNCH_DATE":"2021-03-04","RA_OF_ASC_NODE":"70.8300","REF_FRAME":"TEME","MEAN_MOTION_DOT":"-0.00000547","ARG_OF_PERICENTER":"101.3300","SEMIMAJOR_AXIS":"6925.354","PERIOD":"95.592","ELEMENT_SET_NO":"999","MEAN_ANOMALY":"258.7927","OBJECT_ID":"2021-017AC","TIME_SYSTEM":"UTC","MEAN_ELEMENT_THEORY":"SGP4","TLE_LINE1":"1 47748U 21017AC  21239.77027479 -.00000547  00000-0 -17816-4 0  9996","GP_ID":"183556902","EPOCH":"2021-08-27T18:29:11.741856","APOAPSIS":"548.686","INCLINATION":"53.0574","COUNTRY_CODE":"US","SITE":"AFETR","OBJECT_TYPE":"PAYLOAD"},{"MEAN_MOTION_DOT":"0.00000824","RA_OF_ASC_NODE":"70.7567","REF_FRAME":"TEME","PERIOD":"95.592","SEMIMAJOR_AXIS":"6925.347","ARG_OF_PERICENTER":"94.9927","ELEMENT_SET_NO":"999","MEAN_ANOMALY":"265.1302","GP_ID":"183557139","TLE_LINE1":"1 47749U 21017AD  21239.78501254  .00000824  00000-0  74224-4 0  9998","MEAN_ELEMENT_THEORY":"SGP4","TIME_SYSTEM":"UTC","OBJECT_ID":"2021-017AD","INCLINATION":"53.0556","APOAPSIS":"548.664","EPOCH":"2021-08-27T18:50:25.083456","COUNTRY_CODE":"US","OBJECT_TYPE":"PAYLOAD","SITE":"AFETR","OBJECT_NAME":"STARLINK-2163","CLASSIFICATION_TYPE":"U","NORAD_CAT_ID":"47749","MEAN_MOTION":"15.06400382","REV_AT_EPOCH":"2843","MEAN_MOTION_DDOT":"0.0000000000000","DECAY_DATE":null,"ECCENTRICITY":"0.00020960","TLE_LINE2":"2 47749  53.0556  70.7567 0002096  94.9927 265.1302 15.06400382 28431","BSTAR":"0.00007422400000","FILE":"3104038","RCS_SIZE":"LARGE","PERIAPSIS":"545.761","CENTER_NAME":"EARTH","EPHEMERIS_TYPE":"0","LAUNCH_DATE":"2021-03-04"},{"MEAN_ANOMALY":"261.7771","ELEMENT_SET_NO":"999","SEMIMAJOR_AXIS":"6925.357","ARG_OF_PERICENTER":"98.3470","PERIOD":"95.592","RA_OF_ASC_NODE":"70.5634","REF_FRAME":"TEME","MEAN_MOTION_DOT":"-0.00000864","SITE":"AFETR","OBJECT_TYPE":"PAYLOAD","COUNTRY_CODE":"US","EPOCH":"2021-08-27T19:54:06.749856","INCLINATION":"53.0564","APOAPSIS":"548.761","TLE_LINE1":"1 47750U 21017AE  21239.82924479 -.00000864  00000-0 -39116-4 0  9990","GP_ID":"183557886","TIME_SYSTEM":"UTC","OBJECT_ID":"2021-017AE","MEAN_ELEMENT_THEORY":"SGP4","MEAN_MOTION":"15.06397235","NORAD_CAT_ID":"47750","REV_AT_EPOCH":"2844","CLASSIFICATION_TYPE":"U","OBJECT_NAME":"STARLINK-2164","LAUNCH_DATE":"2021-03-04","BSTAR":"-0.00003911600000","TLE_LINE2":"2 47750  53.0564  70.5634 0002222  98.3470 261.7771 15.06397235 28442","RCS_SIZE":"LARGE","FILE":"3104038","EPHEMERIS_TYPE":"0","PERIAPSIS":"545.683","CENTER_NAME":"EARTH","ECCENTRICITY":"0.00022220","MEAN_MOTION_DDOT":"0.0000000000000","DECAY_DATE":null},{"NORAD_CAT_ID":"47751","MEAN_MOTION":"15.06410037","REV_AT_EPOCH":"2858","CLASSIFICATION_TYPE":"U","OBJECT_NAME":"STARLINK-2168","LAUNCH_DATE":"2021-03-04","TLE_LINE2":"2 47751  53.0433  60.7812 0001371  88.2624 271.8522 15.06410037 28587","BSTAR":"0.00021127000000","FILE":"3104038","PERIAPSIS":"546.233","RCS_SIZE":"LARGE","EPHEMERIS_TYPE":"0","CENTER_NAME":"EARTH","ECCENTRICITY":"0.00013710","MEAN_MOTION_DDOT":"0.0000000000000","DECAY_DATE":null,"ELEMENT_SET_NO":"999","MEAN_ANOMALY":"271.8522","PERIOD":"95.592","ARG_OF_PERICENTER":"88.2624","SEMIMAJOR_AXIS":"6925.318","MEAN_MOTION_DOT":"0.00002868","REF_FRAME":"TEME","RA_OF_ASC_NODE":"60.7812","OBJECT_TYPE":"PAYLOAD","SITE":"AFETR","COUNTRY_CODE":"US","INCLINATION":"53.0433","APOAPSIS":"548.132","EPOCH":"2021-08-27T19:02:22.945632","GP_ID":"183556653","TLE_LINE1":"1 47751U 21017AF  21239.79332113  .00002868  00000-0  21127-3 0  9991","MEAN_ELEMENT_THEORY":"SGP4","TIME_SYSTEM":"UTC","OBJECT_ID":"2021-017AF"},{"NORAD_CAT_ID":"47752","MEAN_MOTION":"15.06398259","REV_AT_EPOCH":"2842","CLASSIFICATION_TYPE":"U","OBJECT_NAME":"STARLINK-2169","LAUNCH_DATE":"2021-03-04","TLE_LINE2":"2 47752  53.0574  75.5761 0002028  91.3318 268.7903 15.06398259 28428","BSTAR":"-0.00002061700000","FILE":"3104038","PERIAPSIS":"545.814","RCS_SIZE":"LARGE","CENTER_NAME":"EARTH","EPHEMERIS_TYPE":"0","ECCENTRICITY":"0.00020280","MEAN_MOTION_DDOT":"0.0000000000000","DECAY_DATE":null,"MEAN_ANOMALY":"268.7903","ELEMENT_SET_NO":"999","PERIOD":"95.592","SEMIMAJOR_AXIS":"6925.354","ARG_OF_PERICENTER":"91.3318","MEAN_MOTION_DOT":"-0.00000589","RA_OF_ASC_NODE":"75.5761","REF_FRAME":"TEME","OBJECT_TYPE":"PAYLOAD","SITE":"AFETR","COUNTRY_CODE":"US","APOAPSIS":"548.623","INCLINATION":"53.0574","EPOCH":"2021-08-27T19:50:47.795712","GP_ID":"183556388","TLE_LINE1":"1 47752U 21017AG  21239.82694208 -.00000589  00000-0 -20617-4 0  9996","MEAN_ELEMENT_THEORY":"SGP4","OBJECT_ID":"2021-017AG","TIME_SYSTEM":"UTC"}];
